{
  "type": "FeatureCollection",
  "features": [
    {
      "type": "Feature",
      "properties": {
        "norad_id": 15362,
        "name": "NOVA 3",
        "group": "nnss",
        "lat": 66.26526926569308,
        "lon": 80.22906375091311,
        "alt_km": 1165.7634017037235,
        "timestamp": "2025-12-10T09:57:44.967853+00:00",
        "meta_object_name": "NOVA 3",
        "meta_object_id": "1984-110A",
        "meta_epoch": "2025-12-10T04:30:11.073024",
        "meta_mean_motion": 13.23044169,
        "meta_eccentricity": 0.0030685,
        "meta_inclination": 90.1223,
        "meta_ra_of_asc_node": 80.5047,
        "meta_arg_of_pericenter": 339.1749,
        "meta_mean_anomaly": 83.9511,
        "meta_ephemeris_type": 0,
        "meta_classification_type": "U",
        "meta_norad_cat_id": 15362,
        "meta_element_set_no": 999,
        "meta_rev_at_epoch": 98665,
        "meta_bstar": 0.00020671,
        "meta_mean_motion_dot": 9.5e-07,
        "meta_mean_motion_ddot": 0,
        "tle_line1": "1 15362U 84110A   25344.18762816  .00000095  00000+0  20671-3 0  9990",
        "tle_line2": "2 15362  90.1223  80.5047 0030685 339.1749  83.9511 13.23044169986652"
      },
      "geometry": {
        "type": "Point",
        "coordinates": [
          80.22906375091311,
          66.26526926569308
        ]
      }
    },
    {
      "type": "Feature",
      "properties": {
        "norad_id": 15935,
        "name": "OSCAR 30",
        "group": "nnss",
        "lat": 36.15670777418803,
        "lon": 99.688378377896,
        "alt_km": 1045.5323621528732,
        "timestamp": "2025-12-10T09:57:44.967864+00:00",
        "meta_object_name": "OSCAR 30",
        "meta_object_id": "1985-066A",
        "meta_epoch": "2025-12-09T18:25:09.306048",
        "meta_mean_motion": 13.3607769,
        "meta_eccentricity": 0.0169422,
        "meta_inclination": 90.165,
        "meta_ra_of_asc_node": 99.7985,
        "meta_arg_of_pericenter": 92.2003,
        "meta_mean_anomaly": 72.3872,
        "meta_ephemeris_type": 0,
        "meta_classification_type": "U",
        "meta_norad_cat_id": 15935,
        "meta_element_set_no": 999,
        "meta_rev_at_epoch": 96413,
        "meta_bstar": 0.00028719,
        "meta_mean_motion_dot": 1.7e-06,
        "meta_mean_motion_ddot": 0,
        "tle_line1": "1 15935U 85066A   25343.76746882  .00000170  00000+0  28719-3 0  9990",
        "tle_line2": "2 15935  90.1650  99.7985 0169422  92.2003  72.3872 13.36077690964137"
      },
      "geometry": {
        "type": "Point",
        "coordinates": [
          99.688378377896,
          36.15670777418803
        ]
      }
    },
    {
      "type": "Feature",
      "properties": {
        "norad_id": 15936,
        "name": "OSCAR 24",
        "group": "nnss",
        "lat": 65.01692995287438,
        "lon": -87.35186701170215,
        "alt_km": 996.4264561985128,
        "timestamp": "2025-12-10T09:57:44.967874+00:00",
        "meta_object_name": "OSCAR 24",
        "meta_object_id": "1985-066B",
        "meta_epoch": "2025-12-09T13:41:01.087008",
        "meta_mean_motion": 13.35935118,
        "meta_eccentricity": 0.0170472,
        "meta_inclination": 90.1788,
        "meta_ra_of_asc_node": 92.2493,
        "meta_arg_of_pericenter": 99.1842,
        "meta_mean_anomaly": 273.8521,
        "meta_ephemeris_type": 0,
        "meta_classification_type": "U",
        "meta_norad_cat_id": 15936,
        "meta_element_set_no": 999,
        "meta_rev_at_epoch": 96601,
        "meta_bstar": 0.00024605,
        "meta_mean_motion_dot": 1.47e-06,
        "meta_mean_motion_ddot": 0,
        "tle_line1": "1 15936U 85066B   25343.57015147  .00000147  00000+0  24605-3 0  9997",
        "tle_line2": "2 15936  90.1788  92.2493 0170472  99.1842 273.8521 13.35935118966011"
      },
      "geometry": {
        "type": "Point",
        "coordinates": [
          -87.35186701170215,
          65.01692995287438
        ]
      }
    },
    {
      "type": "Feature",
      "properties": {
        "norad_id": 17070,
        "name": "POLAR BEAR",
        "group": "nnss",
        "lat": -18.57299090528478,
        "lon": -176.2618869800449,
        "alt_km": 1010.2430367911911,
        "timestamp": "2025-12-10T09:57:44.967885+00:00",
        "meta_object_name": "POLAR BEAR",
        "meta_object_id": "1986-088A",
        "meta_epoch": "2025-12-10T03:37:56.894016",
        "meta_mean_motion": 13.75249996,
        "meta_eccentricity": 0.0040816,
        "meta_inclination": 89.6176,
        "meta_ra_of_asc_node": 183.8773,
        "meta_arg_of_pericenter": 126.7496,
        "meta_mean_anomaly": 350.0554,
        "meta_ephemeris_type": 0,
        "meta_classification_type": "U",
        "meta_norad_cat_id": 17070,
        "meta_element_set_no": 999,
        "meta_rev_at_epoch": 95943,
        "meta_bstar": 0.00013919,
        "meta_mean_motion_dot": 1.46e-06,
        "meta_mean_motion_ddot": 0,
        "tle_line1": "1 17070U 86088A   25344.15135294  .00000146  00000+0  13919-3 0  9999",
        "tle_line2": "2 17070  89.6176 183.8773 0040816 126.7496 350.0554 13.75249996959432"
      },
      "geometry": {
        "type": "Point",
        "coordinates": [
          -176.2618869800449,
          -18.57299090528478
        ]
      }
    },
    {
      "type": "Feature",
      "properties": {
        "norad_id": 18361,
        "name": "OSCAR 27",
        "group": "nnss",
        "lat": 48.25064502285277,
        "lon": -100.39509736905734,
        "alt_km": 1097.8356146027236,
        "timestamp": "2025-12-10T09:57:44.967895+00:00",
        "meta_object_name": "OSCAR 27",
        "meta_object_id": "1987-080A",
        "meta_epoch": "2025-12-10T03:56:34.452096",
        "meta_mean_motion": 13.44905917,
        "meta_eccentricity": 0.0102723,
        "meta_inclination": 90.3742,
        "meta_ra_of_asc_node": 79.176,
        "meta_arg_of_pericenter": 231.2561,
        "meta_mean_anomaly": 127.9373,
        "meta_ephemeris_type": 0,
        "meta_classification_type": "U",
        "meta_norad_cat_id": 18361,
        "meta_element_set_no": 999,
        "meta_rev_at_epoch": 87522,
        "meta_bstar": 0.00027095,
        "meta_mean_motion_dot": 1.72e-06,
        "meta_mean_motion_ddot": 0,
        "tle_line1": "1 18361U 87080A   25344.16428764  .00000172  00000+0  27095-3 0  9993",
        "tle_line2": "2 18361  90.3742  79.1760 0102723 231.2561 127.9373 13.44905917875220"
      },
      "geometry": {
        "type": "Point",
        "coordinates": [
          -100.39509736905734,
          48.25064502285277
        ]
      }
    },
    {
      "type": "Feature",
      "properties": {
        "norad_id": 18362,
        "name": "OSCAR 29",
        "group": "nnss",
        "lat": 32.18578481727976,
        "lon": -100.11945652051708,
        "alt_km": 1111.7880473599844,
        "timestamp": "2025-12-10T09:57:44.967905+00:00",
        "meta_object_name": "OSCAR 29",
        "meta_object_id": "1987-080B",
        "meta_epoch": "2025-12-10T04:10:57.391968",
        "meta_mean_motion": 13.44447751,
        "meta_eccentricity": 0.0103808,
        "meta_inclination": 90.3754,
        "meta_ra_of_asc_node": 79.6351,
        "meta_arg_of_pericenter": 254.6181,
        "meta_mean_anomaly": 169.3252,
        "meta_ephemeris_type": 0,
        "meta_classification_type": "U",
        "meta_norad_cat_id": 18362,
        "meta_element_set_no": 999,
        "meta_rev_at_epoch": 87475,
        "meta_bstar": 0.00024897,
        "meta_mean_motion_dot": 1.57e-06,
        "meta_mean_motion_ddot": 0,
        "tle_line1": "1 18362U 87080B   25344.17427537  .00000157  00000+0  24897-3 0  9992",
        "tle_line2": "2 18362  90.3754  79.6351 0103808 254.6181 169.3252 13.44447751874757"
      },
      "geometry": {
        "type": "Point",
        "coordinates": [
          -100.11945652051708,
          32.18578481727976
        ]
      }
    },
    {
      "type": "Feature",
      "properties": {
        "norad_id": 19070,
        "name": "OSCAR 23",
        "group": "nnss",
        "lat": 61.627443750296,
        "lon": 15.725187083240638,
        "alt_km": 1228.582037186482,
        "timestamp": "2025-12-10T09:57:44.967916+00:00",
        "meta_object_name": "OSCAR 23",
        "meta_object_id": "1988-033A",
        "meta_epoch": "2025-12-10T02:41:29.887008",
        "meta_mean_motion": 13.27786545,
        "meta_eccentricity": 0.0189313,
        "meta_inclination": 90.3214,
        "meta_ra_of_asc_node": 16.3112,
        "meta_arg_of_pericenter": 187.2307,
        "meta_mean_anomaly": 228.9665,
        "meta_ephemeris_type": 0,
        "meta_classification_type": "U",
        "meta_norad_cat_id": 19070,
        "meta_element_set_no": 999,
        "meta_rev_at_epoch": 82218,
        "meta_bstar": 0.00019058,
        "meta_mean_motion_dot": 1.03e-06,
        "meta_mean_motion_ddot": 0,
        "tle_line1": "1 19070U 88033A   25344.11215147  .00000103  00000+0  19058-3 0  9998",
        "tle_line2": "2 19070  90.3214  16.3112 0189313 187.2307 228.9665 13.27786545822182"
      },
      "geometry": {
        "type": "Point",
        "coordinates": [
          15.725187083240638,
          61.627443750296
        ]
      }
    }
  ]
}